FLOCK 4BE-27            
1 60513U 24149AX  26190.16828105  .00007187  00000+0  21510-3 0  9998
2 60513  97.3820 272.0343 0003367 202.7651 157.3444 15.34844183105510
FLOCK 4BE-9             
1 60514U 24149AY  26190.03653995  .00011231  00000+0  27016-3 0  9990
2 60514  97.3785 274.5287 0003091 188.6470 171.4725 15.41465848105682
FLOCK 4BE-6             
1 60516U 24149BA  26189.75809424  .00010837  00000+0  27191-3 0  9994
2 60516  97.3783 273.5644 0003689 193.1062 167.0089 15.40192015105595
FLOCK 4BE-14            
1 60517U 24149BB  26190.17571948  .00013917  00000+0  33130-3 0  9992
2 60517  97.3690 274.1426 0004654 196.4822 163.6274 15.41719707105717
FLOCK 4BE-1             
1 60518U 24149BC  26190.03884739  .00013252  00000+0  29887-3 0  9999
2 60518  97.3773 275.3610 0004434 196.2754 163.8352 15.43357693105742
FLOCK 4BE-28            
1 60519U 24149BD  26189.76093466  .00034150  00000+0  70235-3 0  9990
2 60519  97.3740 275.8716 0004426 193.5575 166.5556 15.45886309105773
IPERDRONE.0             
1 60520U 24149BE  26189.80880648  .00071957  00000+0  59229-3 0  9999
2 60520  97.3764 284.1409 0004063 180.9096 179.2160 15.70168447106304
TRANSPORTER-11 OBJECT BF
1 60521U 24149BF  26189.82266270  .00594965  16220-3  10977-2 0  9991
2 60521  97.3765 287.6622 0008385 242.1532 117.8898 16.01162793106521
CONNECTA IOT-2          
1 60522U 24149BG  26190.10921565  .00002851  00000+0  12007-3 0  9990
2 60522  97.3833 267.9243 0005072 238.4347 121.6395 15.24160914105239
CONNECTA IOT-4          
1 60524U 24149BJ  26189.74420999  .00015345  00000+0  34989-3 0  9990
2 60524  97.3790 274.3801 0005471 196.4124 163.6947 15.42989279105652
ORESAT0.5               
1 60525U 24149BK  26189.74370125  .00015426  00000+0  31850-3 0  9990
2 60525  97.3718 276.0856 0005627 185.6029 174.5159 15.45926999105805
DEIMOS                  
1 60526U 24149BL  26190.04722620  .00014170  00000+0  30182-3 0  9999
2 60526  97.3778 276.5226 0005517 190.6494 169.4639 15.45031017105824
CUAVA-2                 
1 60527U 24149BM  26190.16253522  .00009676  00000+0  27253-3 0  9993
2 60527  97.3721 271.7253 0006351 201.0247 159.0738 15.36637435105540
ERNST                   
1 60528U 24149BN  26189.81446276  .00009045  00000+0  23035-3 0  9998
2 60528  97.3803 273.7041 0005598 202.1546 157.9459 15.39781528105605
TORO                    
1 60530U 24149BQ  26189.77057481  .00001180  00000+0  10885-3 0  9993
2 60530  97.6785 264.0356 0001528  93.4893 266.6504 14.96508606103183
HYPSO-2                 
1 60531U 24149BR  26188.69600472  .00002581  00000+0  21836-3 0  9992
2 60531  97.6823 264.6570 0001912 108.2868 251.8563 14.98904414103129
LEMU NGE                
1 60532U 24149BS  26190.13862345  .00001282  00000+0  12226-3 0  9994
2 60532  97.6829 264.6548 0000668  59.4126 300.7160 14.95042637103238
LEMUR-2-STELLA          
1 60533U 24149BT  26190.05274528  .00007901  00000+0  46022-3 0  9991
2 60533  97.6729 272.6092 0001033 111.4430 248.6911 15.12285468103803
SATELIOT_2              
1 60534U 24149BU  26190.15981877  .00001944  00000+0  17642-3 0  9992
2 60534  97.6826 264.7152 0001843  83.9683 276.1748 14.96444908103253
NIGHTJAR                
1 60535U 24149BV  26190.01923934  .00002174  00000+0  18364-3 0  9996
2 60535  97.6826 266.4191 0002206 107.7275 252.4189 14.99140894146143
LEMUR-2-MARHISYAM       
1 60536U 24149BW  26190.17364470  .00008195  00000+0  48492-3 0  9992
2 60536  97.6877 273.2018 0002797  78.4878 281.6666 15.11702055103800
SATELIOT_4              
1 60537U 24149BX  26190.16618642  .00001618  00000+0  14650-3 0  9997
2 60537  97.6736 264.2338 0001575  20.4352 339.6932 14.96748870103264
PICO-02A021             
1 60538U 24149BY  26189.73169079  .00002640  00000+0  19831-3 0  9996
2 60538  97.6747 268.3815 0003200 317.3767  42.7209 15.03460922102971
ICEYE-X43               
1 60539U 24149BZ  26189.77997472  .00001755  00000+0  14675-3 0  9994
2 60539  97.6814 266.4552 0006953  14.9788 345.1640 14.99772584103351
HAWK-10A                
1 60540U 24149CA  26189.89979165  .00001483  00000+0  13532-3 0  9997
2 60540  97.6892 265.4382 0003684  27.8367 332.3051 14.96582101103235
UMBRA-09                
1 60541U 24149CB  26190.21045289  .00010667  00000+0  51691-3 0  9999
2 60541  97.6970 277.8023 0001785 214.0416 146.0703 15.18723998104069
QPS-SAR-8 (AMATERU-IV)  
1 60542U 24149CC  26189.81279651  .00003079  00000+0  22509-3 0  9991
2 60542  97.6667 268.7834 0004402  61.5447 298.6222 15.04360545103520
ARCTIC WEATHER SATELLITE
1 60543U 24149CD  26189.78066256  .00000618  00000+0  69970-4 0  9993
2 60543  97.6793 259.6278 0003307  64.1630 295.9929 14.89821552102512
CAPELLA-15 (ACADIA-5)   
1 60544U 24149CE  26189.77779346  .00002013  00000+0  20207-3 0  9994
2 60544  97.6776 262.1397 0003386   8.7995 351.3283 14.92382217103076
HAWK-10B                
1 60545U 24149CF  26190.16709294  .00001397  00000+0  12769-3 0  9993
2 60545  97.6812 265.0338 0006023  35.8014 324.3611 14.96582889103277
